CCSDS_OMM_VERS = 2.0
CREATION_DATE  = 
ORIGINATOR     = 

OBJECT_NAME    = STARLINK-35777
OBJECT_ID      = 2025-288S
CENTER_NAME    = EARTH
REF_FRAME      = TEME
TIME_SYSTEM    = UTC
MEAN_ELEMENT_THEORY = SGP/SGP4

EPOCH          = 2025-12-19T13:12:15.086304
MEAN_MOTION    = 15.83731621
ECCENTRICITY   = .0003315
INCLINATION    = 43.0015
RA_OF_ASC_NODE = 125.3888
ARG_OF_PERICENTER = 266.6786
MEAN_ANOMALY   = 93.3707

EPHEMERIS_TYPE = 0
CLASSIFICATION_TYPE = U
NORAD_CAT_ID   = 66975
ELEMENT_SET_NO = 999
REV_AT_EPOCH   = 292
BSTAR          = -.24503E-2
MEAN_MOTION_DOT = -.527842E-2
MEAN_MOTION_DDOT = 0

CCSDS_OMM_VERS = 2.0
CREATION_DATE  = 
ORIGINATOR     = 

OBJECT_NAME    = STARLINK-35772
OBJECT_ID      = 2025-288T
CENTER_NAME    = EARTH
REF_FRAME      = TEME
TIME_SYSTEM    = UTC
MEAN_ELEMENT_THEORY = SGP/SGP4

EPOCH          = 2025-12-19T18:13:48.226080
MEAN_MOTION    = 15.72395556
ECCENTRICITY   = .0005581
INCLINATION    = 43.0018
RA_OF_ASC_NODE = 124.3917
ARG_OF_PERICENTER = 228.9492
MEAN_ANOMALY   = 131.0894

EPHEMERIS_TYPE = 0
CLASSIFICATION_TYPE = U
NORAD_CAT_ID   = 66976
ELEMENT_SET_NO = 999
REV_AT_EPOCH   = 295
BSTAR          = -.81992E-2
MEAN_MOTION_DOT = -.1016637E-1
MEAN_MOTION_DDOT = 0

CCSDS_OMM_VERS = 2.0
CREATION_DATE  = 
ORIGINATOR     = 

OBJECT_NAME    = STARLINK-35770
OBJECT_ID      = 2025-288U
CENTER_NAME    = EARTH
REF_FRAME      = TEME
TIME_SYSTEM    = UTC
MEAN_ELEMENT_THEORY = SGP/SGP4

EPOCH          = 2025-12-19T13:11:34.611360
MEAN_MOTION    = 15.83672083
ECCENTRICITY   = .000222
INCLINATION    = 43.0014
RA_OF_ASC_NODE = 125.3851
ARG_OF_PERICENTER = 252.5865
MEAN_ANOMALY   = 107.4765

EPHEMERIS_TYPE = 0
CLASSIFICATION_TYPE = U
NORAD_CAT_ID   = 66977
ELEMENT_SET_NO = 999
REV_AT_EPOCH   = 292
BSTAR          = -.22363E-2
MEAN_MOTION_DOT = -.482653E-2
MEAN_MOTION_DDOT = 0

CCSDS_OMM_VERS = 2.0
CREATION_DATE  = 
ORIGINATOR     = 

OBJECT_NAME    = STARLINK-35787
OBJECT_ID      = 2025-288V
CENTER_NAME    = EARTH
REF_FRAME      = TEME
TIME_SYSTEM    = UTC
MEAN_ELEMENT_THEORY = SGP/SGP4

EPOCH          = 2025-12-19T11:39:05.578272
MEAN_MOTION    = 15.83702537
ECCENTRICITY   = .0002044
INCLINATION    = 43.0020
RA_OF_ASC_NODE = 125.7627
ARG_OF_PERICENTER = 273.9758
MEAN_ANOMALY   = 86.0881

EPHEMERIS_TYPE = 0
CLASSIFICATION_TYPE = U
NORAD_CAT_ID   = 66978
ELEMENT_SET_NO = 999
REV_AT_EPOCH   = 291
BSTAR          = -.1112E-4
MEAN_MOTION_DOT = -.3084E-4
MEAN_MOTION_DDOT = 0

CCSDS_OMM_VERS = 2.0
CREATION_DATE  = 
ORIGINATOR     = 

OBJECT_NAME    = STARLINK-36107
OBJECT_ID      = 2025-288W
CENTER_NAME    = EARTH
REF_FRAME      = TEME
TIME_SYSTEM    = UTC
MEAN_ELEMENT_THEORY = SGP/SGP4

EPOCH          = 2025-12-19T19:12:44.358624
MEAN_MOTION    = 15.82797250
ECCENTRICITY   = .0002672
INCLINATION    = 43.0021
RA_OF_ASC_NODE = 123.8231
ARG_OF_PERICENTER = 296.8538
MEAN_ANOMALY   = 63.2061

EPHEMERIS_TYPE = 0
CLASSIFICATION_TYPE = U
NORAD_CAT_ID   = 66979
ELEMENT_SET_NO = 999
REV_AT_EPOCH   = 296
BSTAR          = -.22527E-2
MEAN_MOTION_DOT = -.467261E-2
MEAN_MOTION_DDOT = 0

CCSDS_OMM_VERS = 2.0
CREATION_DATE  = 
ORIGINATOR     = 

OBJECT_NAME    = STARLINK-36086
OBJECT_ID      = 2025-288X
CENTER_NAME    = EARTH
REF_FRAME      = TEME
TIME_SYSTEM    = UTC
MEAN_ELEMENT_THEORY = SGP/SGP4

EPOCH          = 2025-12-19T16:10:18.957792
MEAN_MOTION    = 15.83758692
ECCENTRICITY   = .000324
INCLINATION    = 43.0018
RA_OF_ASC_NODE = 124.5942
ARG_OF_PERICENTER = 311.6941
MEAN_ANOMALY   = 48.3654

EPHEMERIS_TYPE = 0
CLASSIFICATION_TYPE = U
NORAD_CAT_ID   = 66980
ELEMENT_SET_NO = 999
REV_AT_EPOCH   = 294
BSTAR          = .83638E-3
MEAN_MOTION_DOT = .195036E-2
MEAN_MOTION_DDOT = 0

CCSDS_OMM_VERS = 2.0
CREATION_DATE  = 
ORIGINATOR     = 

OBJECT_NAME    = STARLINK-36142
OBJECT_ID      = 2025-288Y
CENTER_NAME    = EARTH
REF_FRAME      = TEME
TIME_SYSTEM    = UTC
MEAN_ELEMENT_THEORY = SGP/SGP4

EPOCH          = 2025-12-19T16:09:44.786592
MEAN_MOTION    = 15.83850846
ECCENTRICITY   = .0002991
INCLINATION    = 43.0011
RA_OF_ASC_NODE = 124.5902
ARG_OF_PERICENTER = 276.7165
MEAN_ANOMALY   = 83.3367

EPHEMERIS_TYPE = 0
CLASSIFICATION_TYPE = U
NORAD_CAT_ID   = 66981
ELEMENT_SET_NO = 999
REV_AT_EPOCH   = 294
BSTAR          = .13489E-2
MEAN_MOTION_DOT = .320882E-2
MEAN_MOTION_DDOT = 0

CCSDS_OMM_VERS = 2.0
CREATION_DATE  = 
ORIGINATOR     = 

OBJECT_NAME    = STARLINK-36113
OBJECT_ID      = 2025-288Z
CENTER_NAME    = EARTH
REF_FRAME      = TEME
TIME_SYSTEM    = UTC
MEAN_ELEMENT_THEORY = SGP/SGP4

EPOCH          = 2025-12-19T16:08:47.499936
MEAN_MOTION    = 15.85511294
ECCENTRICITY   = .0014279
INCLINATION    = 43.0036
RA_OF_ASC_NODE = 124.5853
ARG_OF_PERICENTER = 310.4660
MEAN_ANOMALY   = 49.4968

EPHEMERIS_TYPE = 0
CLASSIFICATION_TYPE = U
NORAD_CAT_ID   = 66982
ELEMENT_SET_NO = 999
REV_AT_EPOCH   = 294
BSTAR          = .59197E-2
MEAN_MOTION_DOT = .1699797E-1
MEAN_MOTION_DDOT = 0

CCSDS_OMM_VERS = 2.0
CREATION_DATE  = 
ORIGINATOR     = 

OBJECT_NAME    = STARLINK-36145
OBJECT_ID      = 2025-288AA
CENTER_NAME    = EARTH
REF_FRAME      = TEME
TIME_SYSTEM    = UTC
MEAN_ELEMENT_THEORY = SGP/SGP4

EPOCH          = 2025-12-19T14:37:17.427072
MEAN_MOTION    = 15.83382075
ECCENTRICITY   = .0002564
INCLINATION    = 43.0014
RA_OF_ASC_NODE = 124.9686
ARG_OF_PERICENTER = 286.0273
MEAN_ANOMALY   = 74.0317

EPHEMERIS_TYPE = 0
CLASSIFICATION_TYPE = U
NORAD_CAT_ID   = 66983
ELEMENT_SET_NO = 999
REV_AT_EPOCH   = 293
BSTAR          = -.27173E-2
MEAN_MOTION_DOT = -.572524E-2
MEAN_MOTION_DDOT = 0

CCSDS_OMM_VERS = 2.0
CREATION_DATE  = 
ORIGINATOR     = 

OBJECT_NAME    = STARLINK-35591
OBJECT_ID      = 2025-288AB
CENTER_NAME    = EARTH
REF_FRAME      = TEME
TIME_SYSTEM    = UTC
MEAN_ELEMENT_THEORY = SGP/SGP4

EPOCH          = 2025-12-19T16:08:11.751072
MEAN_MOTION    = 15.86480094
ECCENTRICITY   = .0014618
INCLINATION    = 43.0024
RA_OF_ASC_NODE = 124.5818
ARG_OF_PERICENTER = 276.7753
MEAN_ANOMALY   = 83.1457

EPHEMERIS_TYPE = 0
CLASSIFICATION_TYPE = U
NORAD_CAT_ID   = 66984
ELEMENT_SET_NO = 999
REV_AT_EPOCH   = 294
BSTAR          = .15652E-1
MEAN_MOTION_DOT = .4889545E-1
MEAN_MOTION_DDOT = 0

CCSDS_OMM_VERS = 2.0
CREATION_DATE  = 
ORIGINATOR     = 

OBJECT_NAME    = STARLINK-36103
OBJECT_ID      = 2025-288AC
CENTER_NAME    = EARTH
REF_FRAME      = TEME
TIME_SYSTEM    = UTC
MEAN_ELEMENT_THEORY = SGP/SGP4

EPOCH          = 2025-12-19T16:07:33.151008
MEAN_MOTION    = 15.83189138
ECCENTRICITY   = .0002779
INCLINATION    = 43.0015
RA_OF_ASC_NODE = 124.5782
ARG_OF_PERICENTER = 265.4698
MEAN_ANOMALY   = 94.5857

EPHEMERIS_TYPE = 0
CLASSIFICATION_TYPE = U
NORAD_CAT_ID   = 66985
ELEMENT_SET_NO = 999
REV_AT_EPOCH   = 294
BSTAR          = -.25572E-2
MEAN_MOTION_DOT = -.536142E-2
MEAN_MOTION_DDOT = 0

CCSDS_OMM_VERS = 2.0
CREATION_DATE  = 
ORIGINATOR     = 

OBJECT_NAME    = STARLINK-36135
OBJECT_ID      = 2025-288AD
CENTER_NAME    = EARTH
REF_FRAME      = TEME
TIME_SYSTEM    = UTC
MEAN_ELEMENT_THEORY = SGP/SGP4

EPOCH          = 2025-12-19T16:06:57.424608
MEAN_MOTION    = 15.83176247
ECCENTRICITY   = .0002752
INCLINATION    = 43.0010
RA_OF_ASC_NODE = 124.5737
ARG_OF_PERICENTER = 266.3902
MEAN_ANOMALY   = 93.6656

EPHEMERIS_TYPE = 0
CLASSIFICATION_TYPE = U
NORAD_CAT_ID   = 66986
ELEMENT_SET_NO = 999
REV_AT_EPOCH   = 294
BSTAR          = -.25748E-2
MEAN_MOTION_DOT = -.539297E-2
MEAN_MOTION_DDOT = 0

