STARLINK-35777          
1 66975U 25288S   25353.55017461 -.00527842  00000+0 -24503-2 0  9990
2 66975  43.0015 125.3888 0003315 266.6786  93.3707 15.83731621  2925
STARLINK-35772          
1 66976U 25288T   25353.75958595 -.01016637  00000+0 -81992-2 0  9996
2 66976  43.0018 124.3917 0005581 228.9492 131.0894 15.72395556  2954
STARLINK-35770          
1 66977U 25288U   25353.54970615 -.00482653  00000+0 -22363-2 0  9992
2 66977  43.0014 125.3851 0002220 252.5865 107.4765 15.83672083  2929
STARLINK-35787          
1 66978U 25288V   25353.48548123 -.00003084  00000+0 -11120-4 0  9999
2 66978  43.0020 125.7627 0002044 273.9758  86.0881 15.83702537  2912
STARLINK-36107          
1 66979U 25288W   25353.80051341 -.00467261  00000+0 -22527-2 0  9999
2 66979  43.0021 123.8231 0002672 296.8538  63.2061 15.82797250  2968
STARLINK-36086          
1 66980U 25288X   25353.67383053  .00195036  00000+0  83638-3 0  9991
2 66980  43.0018 124.5942 0003240 311.6941  48.3654 15.83758692  2947
STARLINK-36142          
1 66981U 25288Y   25353.67343503  .00320882  00000+0  13489-2 0  9993
2 66981  43.0011 124.5902 0002991 276.7165  83.3367 15.83850846  2942
STARLINK-36113          
1 66982U 25288Z   25353.67277199  .01699797  00000+0  59197-2 0  9992
2 66982  43.0036 124.5853 0014279 310.4660  49.4968 15.85511294  2946
STARLINK-36145          
1 66983U 25288AA  25353.60922948 -.00572524  00000+0 -27173-2 0  9993
2 66983  43.0014 124.9686 0002564 286.0273  74.0317 15.83382075  2935
STARLINK-35591          
1 66984U 25288AB  25353.67235823  .04889545  00000+0  15652-1 0  9994
2 66984  43.0024 124.5818 0014618 276.7753  83.1457 15.86480094  2942
STARLINK-36103          
1 66985U 25288AC  25353.67191147 -.00536142  00000+0 -25572-2 0  9998
2 66985  43.0015 124.5782 0002779 265.4698  94.5857 15.83189138  2943
STARLINK-36135          
1 66986U 25288AD  25353.67149797 -.00539297  00000+0 -25748-2 0  9992
2 66986  43.0010 124.5737 0002752 266.3902  93.6656 15.83176247  2942
